HIMAWARI-8              
1 40267U 14060A   24036.85605089 -.00000263  00000+0  00000+0 0  9996
2 40267   0.0248 162.2620 0000539 157.6408 264.4129  1.00269915 34112
